#aV2011 11 23  0  0   .00000000      96 DD+AD WGS84 FIT  NGA
## 1663 259200.00000000   900.00000000 55888  .0000000000000
+   31     1  2  3  4  5  6  7  8  9 10 11 12 13 14 15 16 17
+         18 19 20 21 22 23 25 26 27 28 29 30 31 32  0  0  0
+          0  0  0  0  0  0  0  0  0  0  0  0  0  0  0  0  0
+          0  0  0  0  0  0  0  0  0  0  0  0  0  0  0  0  0
+          0  0  0  0  0  0  0  0  0  0  0  0  0  0  0  0  0
++         0  0  0  0  0  0  0  0  0  0  0  0  0  0  0  0  0
++         0  0  0  0  0  0  0  0  0  0  0  0  0  0  0  0  0
++         0  0  0  0  0  0  0  0  0  0  0  0  0  0  0  0  0
++         0  0  0  0  0  0  0  0  0  0  0  0  0  0  0  0  0
++         0  0  0  0  0  0  0  0  0  0  0  0  0  0  0  0  0
%c cc cc ccc ccc cccc cccc cccc cccc ccccc ccccc ccccc ccccc
%c cc cc ccc ccc cccc cccc cccc cccc ccccc ccccc ccccc ccccc
%f  0.0000000  0.000000000  0.00000000000  0.000000000000000
%f  0.0000000  0.000000000  0.00000000000  0.000000000000000
%i    0    0    0    0      0      0      0      0         0
%i    0    0    0    0      0      0      0      0         0
/*      NGA, ST. LOUIS,MO.                                  
/*   EPHEMERIS COMPUTED FROM  3 DAYS OF DATA                
/* CCCCCCCCCCCCCCCCCCCCCCCCCCCCCCCCCCCCCCCCCCCCCCCCCCCCCCCCC
/* CCCCCCCCCCCCCCCCCCCCCCCCCCCCCCCCCCCCCCCCCCCCCCCCCCCCCCCCC
*  2011 11 23 20 15   .00000000                                                 
P  1  10049.628628  13603.353353 -20496.991709    109.465184                    
V  1 -25836.292200   2991.656013 -10683.015525       .196158                    
P  2  14508.179808 -13919.689128  17179.944943    367.026492                    
V  2  22050.767969    432.307368 -18853.681924       .017909                    
P  3 -10220.881690  24126.794399   2792.868134    798.974843                    
V  3  -2548.974459  -5204.454977  30963.879087       .050765                    
P  4  24966.900489  -6658.207057   6628.384176     12.731723                    
V  4   8873.420096   2515.750180 -29495.207009       .112560                    
P  5   2680.963249 -19078.343587  18213.438223   -249.058019                    
V  5  14487.479895  18241.304173  17081.336128      -.049021                    
P  6 -14288.464189  21207.790372   6792.873162      6.656074                    
V  6    -15.437883  -9271.672379  29748.270563       .051227                    
P  7  22847.047487   6788.301922  11992.915265     39.116898                    
V  7 -14953.033696   2685.887163  26771.677923       .022565                    
P  8  26780.241388   1633.972409   1688.827111       .116511                    
V  8  -2058.509913   1117.796461  32062.279348       .000500                    
P  9  -5604.873642 -14326.586517 -22197.189054    120.335849                    
V  9  26688.423237  -2601.328422  -5215.133037       .026611                    
P 10  16766.376212  -1087.394872  20421.477133    -19.978328                    
V 10  13641.704854  22634.057113  -9495.216831      -.011939                    
P 11   3922.925327  16531.747269 -20763.802617   -206.715281                    
V 11 -24640.056241   8067.575398   2141.580249      -.035021                    
P 12 -11195.513169 -23636.748890  -5122.805373     36.500264                    
V 12   5260.376366   4305.162684 -31138.284080       .022890                    
P 13  10506.051500  10532.423032  21860.821921    239.912015                    
V 13 -14646.082056  23885.139689  -4519.956351      -.019625                    
P 14 -18139.797426   9317.229759 -16761.558844    182.650819                    
V 14   9270.951286 -19610.773050 -20851.799078       .017606                    
P 15   1884.411280 -23784.408325 -11459.066880    -98.528493                    
V 15   8752.469483 -12107.672159  26740.223734       .010486                    
P 16  -3573.178993  18254.633819  18854.038087   -210.418944                    
V 16 -13783.570560 -19654.207837  16717.416856      -.019660                    
P 17  18028.881039  -7999.424864 -17521.838042    164.200216                    
V 17  -8928.803692  20881.312558 -18798.315498      -.019783                    
P 18 -19376.649917 -14437.387475 -11084.673005    168.532685                    
V 18  -5479.692096 -13775.085830  26340.864202       .018526                    
P 19  -6161.325104  23721.684812  -9791.238370   -207.975003                    
V 19  -8856.097195   9280.890114  28512.680909      -.039428                    
P 20  12475.166742  23005.059822  -4902.516178     56.662705                    
V 20  -6450.160079  -2760.811669 -30230.298549       .007275                    
P 21 -25127.694678  -4821.505121   8630.297482   -186.419624                    
V 21  10029.700421  -3510.349381  28133.302316      -.024578                    
P 22 -17621.127927    -43.408536 -19725.813614    143.297304                    
V 22 -12816.094233 -22112.694636  11286.838932      -.000447                    
P 23   4558.479200  18874.817608  17984.008508    256.816962                    
V 23 -11838.771732  19698.604670 -18051.603694      -.032686                    
P 25 -17474.147390 -19450.828395   4733.348645     28.501908                    
V 25  -1342.247405  -6409.575794 -31108.106872       .010765                    
P 26  12187.285619 -23310.444577  -2044.154001   -236.690535                    
V 26   2971.457465   -434.554807  32414.476719      -.135873                    
P 27   1449.266646 -14601.692849 -21464.487330    328.720261                    
V 27  28666.431764  -2753.491933   4086.785105       .039102                    
P 28  17748.072336   4758.799244 -18737.347462     86.873986                    
V 28  11954.963926  21760.156847  16145.507778       .033264                    
P 29 -10868.112741 -11380.417932  21463.756986    260.041590                    
V 29  13255.185781 -23639.630471  -5801.524020       .033381                    
P 30 -13625.484265   7072.507838  21320.998954     41.765226                    
V 30 -17602.748015 -21695.872746  -3990.452521      -.100768                    
P 31 -22892.716879   8586.181888  10846.111439    173.380121                    
V 31 -13436.826245   -936.230830 -27943.573092       .051437                    
P 32   4589.032042  23967.670073 -10780.719169   -366.427886                    
V 32  -8828.232729 -11004.932461 -27146.501541      -.059556                    
EOF
